{"type":"FeatureCollection","features":[{"type":"Feature","geometry":{"type":"MultiPolygon","coordinates":[[[[-97.051473000025695,28.805790999612544],[-97.04931700022469,28.803859000332121],[-97.049196999675772,28.803750999691626],[-97.046223000265243,28.801086000156428],[-97.046414999885855,28.800917000241853],[-97.048444000363588,28.799125000348987],[-97.049222999615054,28.798437000245301],[-97.049021999773572,28.798261000075133],[-97.048760999657674,28.798033000164242],[-97.046292999687125,28.795850999677207],[-97.046857999576659,28.795371000201932],[-97.047459000349491,28.794834000088365],[-97.047563999931469,28.794750000110664],[-97.047917000108896,28.794465999984634],[-97.047944999697989,28.794442000138147],[-97.047888999621478,28.794392000046514],[-97.046916000201279,28.793203000359043],[-97.046533999711542,28.792657000198581],[-97.045977000217945,28.791862000159359],[-97.046075000127232,28.791614999831776],[-97.046844000231275,28.790915000215229],[-97.046821999591643,28.790879000004395],[-97.046384999748625,28.790371000340365],[-97.046184999732091,28.790529000280976],[-97.046075999952151,28.790616000011561],[-97.045615999644596,28.791124000056417],[-97.044963999716444,28.790647000359481],[-97.044229999772512,28.790110000317565],[-97.044102999550915,28.790015999714974],[-97.043797000127483,28.790136999888702],[-97.043442000300232,28.790505000315424],[-97.042978999619663,28.789989999952088],[-97.042417000103185,28.789364999916071],[-97.042207999865795,28.789133000051496],[-97.042099999910775,28.789012000287155],[-97.041733000387964,28.788603999695496],[-97.042935999961941,28.787908999631135],[-97.042993999688264,28.787696000197474],[-97.043068000206418,28.78742299983244],[-97.043182999834144,28.786310000152799],[-97.042467000331897,28.786521000310039],[-97.041128000315467,28.786915999732717],[-97.040961999735799,28.786965000391895],[-97.040868000024474,28.786992999858487],[-97.03834499980232,28.78773700002618],[-97.03765299969119,28.787940999855948],[-97.037425999910468,28.787738999748576],[-97.037232999566626,28.787567999726019],[-97.037163999969664,28.787506000339175],[-97.036691000141644,28.787083999647528],[-97.036378999972101,28.786799000025741],[-97.036313999674775,28.786827000324212],[-97.036197000397237,28.786891999722723],[-97.035854000265559,28.787080000177546],[-97.035619000088928,28.787217000044187],[-97.035156000306642,28.787485999919543],[-97.031797999858242,28.789616000223234],[-97.031188999587783,28.789991999631294],[-97.030821000240081,28.790154000285742],[-97.030754000292916,28.790184000146031],[-97.030350000061873,28.790318000361438],[-97.029940999807962,28.790436999726829],[-97.029461000307251,28.790502999858777],[-97.029058999726033,28.790539000199406],[-97.028909999763115,28.790538000365082],[-97.028665000439034,28.79053699974347],[-97.028364999965078,28.790278999646727],[-97.028077999909897,28.790054999740775],[-97.02805600016859,28.790034999810057],[-97.027641000066893,28.789651000240053],[-97.027056000085878,28.789827999830106],[-97.026542000249989,28.789951999741934],[-97.026106000231906,28.79004099963225],[-97.025553000037931,28.790117999812129],[-97.02520400005848,28.790151999822367],[-97.024912999805323,28.79017300035575],[-97.024568999848753,28.790185999821507],[-97.02392500031651,28.790169000216959],[-97.023474000229811,28.790144000330397],[-97.021191000207182,28.790108999691832],[-97.019596999922641,28.79007999964869],[-97.017251999975727,28.790058000044951],[-97.016277000007378,28.790015999714974],[-97.015791999585488,28.789976999674604],[-97.015423000412866,28.789930999951384],[-97.014502999797784,28.789857999784193],[-97.014261999773353,28.78980100017889],[-97.013867999588058,28.789719999608895],[-97.011099000216944,28.789856999943293],[-97.010875999735859,28.789867999766969],[-97.010858000192499,28.789868999607716],[-97.01079999956788,28.78953299982156],[-97.010792999895187,28.789491000067404],[-97.010757999735091,28.789348000177672],[-97.010729000321092,28.789181999668841],[-97.010730000145983,28.789035999809137],[-97.01075299971221,28.788873999779426],[-97.010717999552114,28.788713999989028],[-97.010688000313195,28.788581999780266],[-97.010677000442556,28.788413999917104],[-97.01075299971221,28.788189999940876],[-97.010790000420457,28.787967000129719],[-97.010873000261128,28.787776000117109],[-97.011052000361261,28.787537000037208],[-97.011173999661693,28.787409000157819],[-97.011296999685342,28.787201999688289],[-97.011457000417224,28.786980999863069],[-97.011607000205046,28.786797000285368],[-97.011722999657678,28.786628000036313],[-97.011775000434525,28.786516000158269],[-97.011860999749942,28.786360000183887],[-97.011987000146632,28.786185999846325],[-97.012043000223159,28.7860360002182],[-97.012148999630043,28.785828000292899],[-97.012172000094566,28.785726999816088],[-97.01217100026966,28.785614999757673],[-97.01217100026966,28.785594999762719],[-97.012135000284658,28.785525000143728],[-97.012081999682891,28.785398000040228],[-97.012065999789371,28.78536200028654],[-97.01201399991082,28.785290999839187],[-97.011991000344594,28.785187999858397],[-97.011963999682109,28.785055000023071],[-97.01193500026811,28.784930999798934],[-97.011888000412426,28.784892000218587],[-97.01179499962771,28.784841000382034],[-97.011638999992101,28.784818999672897],[-97.011474999960555,28.784810999771796],[-97.011304000256345,28.784780999940232],[-97.011182000057616,28.784766000021254],[-97.011050999638044,28.784772000146553],[-97.010879000108901,28.784811999661013],[-97.010838999925937,28.784821000238587],[-97.010699000183848,28.784837999927685],[-97.010510999862888,28.784885000211617],[-97.010318000417342,28.784903999667065],[-97.010119000225728,28.784901000001913],[-97.010029999638945,28.78487800020417],[-97.00983800001832,28.784801000091363],[-97.009721999667363,28.784718999683697],[-97.009581999925288,28.784570000198997],[-97.009572999704446,28.784559999708147],[-97.009469999772293,28.784464999720875],[-97.009396000152435,28.784369999647144],[-97.009326999657148,28.784259000387799],[-97.009292000395376,28.78417599965865],[-97.009258999885077,28.784062999612672],[-97.009257000235266,28.783806999829032],[-97.009264999732892,28.783658999728971],[-97.009274999778626,28.783521000010325],[-97.009310999763642,28.78338400001201],[-97.009320999809376,28.783318000098031],[-97.009371000038087,28.783193000265722],[-97.009422000091718,28.783088999881713],[-97.009501999559347,28.782961000054012],[-97.009591999971022,28.782866000184868],[-97.00966499976596,28.782771000229197],[-97.009812999903957,28.782645999741302],[-97.009899000117684,28.782571000164019],[-97.010038999859773,28.782475999939642],[-97.01018600017288,28.782406999714187],[-97.010315999869206,28.78236199971364],[-97.010444999740628,28.782350999885523],[-97.010505999840007,28.782348000146953],[-97.010591000228828,28.782343999707997],[-97.010737999643609,28.782351999798408],[-97.010788999697226,28.782347000234086],[-97.010864999865206,28.782340000056301],[-97.010997000109683,28.782329000225857],[-97.011059999858873,28.78228500010518],[-97.011121999783143,28.782240000052077],[-97.011212000194845,28.782145000313552],[-97.011249999829658,28.782078999615436],[-97.011355000309962,28.781968000279811],[-97.01151000012068,28.781819000014142],[-97.011551999953468,28.781769000167895],[-97.011608000029966,28.781702000100164],[-97.011674999977117,28.781565999994847],[-97.011693000418774,28.781488999798736],[-97.011705999939252,28.781359999659706],[-97.011758999642694,28.7812180003537],[-97.011706999764172,28.781070999654212],[-97.011655999710541,28.780980000129638],[-97.011642000365157,28.780954999614735],[-97.011580000440873,28.78081600032748],[-97.011517999618292,28.780704999647714],[-97.01146300026501,28.780604999650549],[-97.01135199993692,28.780507000205944],[-97.011276999593861,28.780430000015393],[-97.011217000217712,28.780368000321662],[-97.011084000148315,28.780286000365333],[-97.010972999820254,28.780234999851089],[-97.010853999994538,28.780206000211397],[-97.010793999720107,28.780192000355306],[-97.01073699981869,28.780178999643635],[-97.010570000312427,28.78016000011478],[-97.010349000379478,28.780137000058875],[-97.010145999989902,28.780139999861031],[-97.009936999752512,28.780150999922334],[-97.009812000079052,28.780139999861031],[-97.009613999712329,28.780113000063565],[-97.009470999597184,28.780075000190994],[-97.009299999892974,28.780030999906746],[-97.009157999602763,28.780009999693004],[-97.009049999647729,28.779978000184006],[-97.008998999594084,28.7799410001982],[-97.008920999776294,28.779859999842941],[-97.008868999897757,28.779773999737095],[-97.008808999623298,28.779646999716618],[-97.00890900008072,28.779265000359821],[-97.009198999610632,28.77895099985329],[-97.009333000403245,28.778816000044532],[-97.009498000259711,28.778722000284521],[-97.00968099965948,28.778664000155771],[-97.009859999759627,28.778611999687122],[-97.010002999874771,28.77855300033535],[-97.010016000293561,28.778547999801571],[-97.010183999624729,28.778481999976876],[-97.010313000394476,28.778401000063361],[-97.010445999565547,28.778328999649986],[-97.010572999787158,28.778268000234178],[-97.010762999757958,28.778169000215719],[-97.010930000162531,28.778086000151756],[-97.011176000209829,28.778045999632454],[-97.011357999784707,28.778061999684539],[-97.01155899962616,28.778061999684539],[-97.011737999726307,28.778045999632454],[-97.011934000443219,28.778028999623686],[-97.01213600010955,28.77801199961208],[-97.012182000140314,28.778007999794209],[-97.012451999578744,28.778020999989085],[-97.01262800020416,28.777992999688529],[-97.01276999959606,28.777968000032388],[-97.012947999871287,28.777887999675418],[-97.012962999939901,28.777873000339799],[-97.013048000328723,28.777790000040309],[-97.01307000007003,28.777752000108809],[-97.013137000017181,28.777643000021254],[-97.013174999652009,28.777489000079129],[-97.013182000223026,28.777395999871047],[-97.013188000070798,28.77731599986274],[-97.01320800016228,28.777204000220493],[-97.013222000406003,28.777074000330281],[-97.01224700043764,28.777459999675987],[-97.011321999799691,28.777815999695346],[-97.01103599956943,28.777927000300004],[-97.010864000040286,28.777992999688529],[-97.009991000179198,28.778328999649986],[-97.009735000086167,28.778428000303979],[-97.00895500011147,28.778727999970151],[-97.008761999767628,28.778802000001896],[-97.005825999991941,28.78004100004458],[-97.005798000402848,28.77999000019787],[-97.005415999913112,28.779300999855945],[-97.0049360004124,28.779501999832835],[-97.004786999551172,28.779564999980842],[-97.004636999763335,28.779627000151869],[-97.004487999800418,28.779690000224445],[-97.004338000012595,28.779753000258967],[-97.004189000049692,28.779815000318255],[-97.004040000086775,28.779878000277222],[-97.003741000336035,28.780003000145722],[-97.003441999686956,28.780127999864433],[-97.003291999899133,28.780190999634357],[-97.003199999837634,28.780230000185245],[-97.003131000240643,28.780258999818287],[-97.0030149998897,28.780303999938791],[-97.003051999699636,28.780369000253501],[-97.003148999784003,28.780550000359252],[-97.003197000362903,28.780635999825233],[-97.003419999945649,28.781042000246938],[-97.003361000394435,28.78106200032774],[-97.00304599985185,28.781204999769965],[-97.002386000426071,28.781486999956471],[-97.001592000207694,28.781831999734049],[-96.999889000143199,28.782584999700781],[-96.999546000011534,28.782745000234552],[-96.998233999759293,28.78332500021018],[-96.998090999644148,28.783392999925471],[-96.997560999914725,28.783617999871527],[-96.997222999805928,28.783745999680232],[-96.997098999957373,28.783780000193481],[-96.99702500033753,28.78380300023338],[-96.996672000160117,28.783195999980059],[-96.995850000352647,28.781751999978535],[-96.994739999766779,28.779807999970519],[-96.993235000068992,28.777146999997871],[-96.99262900017159,28.777396999831357],[-96.990896999794771,28.778150000320757],[-96.990582000150496,28.778279999657425],[-96.990435999662324,28.778345999609925],[-96.98942999973184,28.778770000122297],[-96.987422000068833,28.775279000124272],[-96.987135999838557,28.774787999811512],[-96.986719999911955,28.774013999618205],[-96.986898000187182,28.773931000185453],[-96.98708200031021,28.773845999910442],[-96.987612000039618,28.773606000196089],[-96.988530000106564,28.773183999956654],[-96.988950000231128,28.772992999643531],[-96.987884999851104,28.771141999756793],[-96.987597999795923,28.771244000202156],[-96.987468999924488,28.77129000029316],[-96.987318000311745,28.771343999723712],[-96.986565999926171,28.771663000367941],[-96.985826999959372,28.771976999975646],[-96.985592999607633,28.772076000358151],[-96.984696000355413,28.770471999756801],[-96.983752000349213,28.768788000236349],[-96.983395999798731,28.768177999872879],[-96.983073999583468,28.767626999932709],[-96.983040999971493,28.767571000044569],[-96.98280999999281,28.76717299963661],[-96.982840000130039,28.767159999664969],[-96.982387000393501,28.766351999702358],[-96.982331000317018,28.7663769997794],[-96.98210299981308,28.765969999701891],[-96.982025999820166,28.765833000278366],[-96.981891999925864,28.765594000319023],[-96.981875000207424,28.765563999685821],[-96.981830000001594,28.765484000055007],[-96.981785999620669,28.765404999650638],[-96.980753999750917,28.763566000154761],[-96.980618000206775,28.763323000135749],[-96.98054200003881,28.763188999889831],[-96.980273000425285,28.762708999712533],[-96.978843000172262,28.763961999965151],[-96.97875899960836,28.763794999914083],[-96.978065999672324,28.762408000345594],[-96.977601000240227,28.762597000141071],[-96.976889000037616,28.762887000232634],[-96.976557999601511,28.763021000078819],[-96.976412000011635,28.763080000338572],[-96.976244999607061,28.762721000137628],[-96.97605200016153,28.762305999926276],[-96.975627999839006,28.761396999778324],[-96.975420000324846,28.760940999708914],[-96.975350000004653,28.760787999648617],[-96.975228999630829,28.760835999861559],[-96.975031000162417,28.760912000219136],[-96.97483600016875,28.760987999733896],[-96.974903000115887,28.761135000379124],[-96.975027999789376,28.761409000354252],[-96.97560899957243,28.76268499964576],[-96.975722000448641,28.762929999773011],[-96.97581399961183,28.763130999788778],[-96.975097000284663,28.763834000294164],[-96.971893999646966,28.766973000378147],[-96.971038000402615,28.767812000305629],[-96.97086599997516,28.767979000228646],[-96.964252999908808,28.774461000152638],[-96.962337000307315,28.776338000234944],[-96.962176999575433,28.776496000177428],[-96.962016999741863,28.776651999945734],[-96.960161000414814,28.778470999739564],[-96.959830999803614,28.778259999830585],[-96.959573999885677,28.778523000278504],[-96.958485999939413,28.779647999655417],[-96.958420999642087,28.779569999678554],[-96.95789699976045,28.778948000016875],[-96.957352999787318,28.778301000219475],[-96.956396000260625,28.778979999841852],[-96.952288999799691,28.781864000248891],[-96.952220000202729,28.781912000215495],[-96.952984000283877,28.782887999731265],[-96.951989000224032,28.783758999947235],[-96.952934000055151,28.784977000153251],[-96.953192999622928,28.785296000049694],[-96.950557000321197,28.787878000043708],[-96.950286000159537,28.787640999921873],[-96.949923999761296,28.787321000248077],[-96.947620999647199,28.789327000265477],[-96.947251999576238,28.789648999767032],[-96.946491999693052,28.790310999931425],[-96.946187000094525,28.790576000361607],[-96.946603999846033,28.790948000135106],[-96.945664000037794,28.791778000148682],[-96.945752999726253,28.791858999907102],[-96.945859999856367,28.791955999884852],[-96.945931999826399,28.792021999842508],[-96.946140000238856,28.7922070002525],[-96.943331999611374,28.795166999952496],[-96.943170000127964,28.795019000231658],[-96.942043999648575,28.796033000245146],[-96.941966999655662,28.795962999761553],[-96.94189899988362,28.796023999848241],[-96.941471000261444,28.796410999682731],[-96.938912999879193,28.79871499967604],[-96.937771000404581,28.799744000073773],[-96.937309000447229,28.799338999798451],[-96.936730000314,28.798768000109199],[-96.936132999739101,28.799297999809244],[-96.936439999885778,28.799591999989687],[-96.937199999768978,28.800259000269349],[-96.935905000133488,28.801424999680521],[-96.935416000411934,28.801865000360454],[-96.934932999639855,28.80229999978792],[-96.934387000016912,28.802792000165923],[-96.933044999627441,28.804001000289642],[-96.932499000004483,28.804492000020549],[-96.93195300038154,28.804984000282396],[-96.931702000311375,28.805211000248754],[-96.931189000300407,28.80567199967113],[-96.929373000257996,28.807308000218956],[-96.928230000060168,28.808337999654242],[-96.923567999755434,28.812536000021783],[-96.923436000409268,28.812657000025634],[-96.924110999903647,28.813223999914509],[-96.924818000083405,28.813798000292554],[-96.92492600003844,28.813885999887102],[-96.925209999720551,28.814121999756498],[-96.925275999842796,28.814173999829272],[-96.919672999904904,28.820077999840937],[-96.919578000368674,28.820161000314023],[-96.919202999551615,28.820482000231326],[-96.917568999982421,28.821886999749047],[-96.912131999725915,28.826566000112692],[-96.908795000092198,28.829437999803751],[-96.908534999801205,28.829664999990076],[-96.908030000186145,28.83009699985783],[-96.907232999594726,28.830589000365269],[-96.907153999951987,28.830634000002913],[-96.907354999793441,28.830902000099989],[-96.907452999702741,28.831027000155977],[-96.907490000410974,28.831074000068927],[-96.908287000104096,28.832056000093814],[-96.908112000201911,28.832240000023106],[-96.905992000385893,28.834471999844673],[-96.904465000048503,28.836080000030758],[-96.90404499992394,28.836530000120003],[-96.903633000195271,28.836984999927953],[-96.903232000337297,28.837446000347128],[-96.90303700034363,28.83767899981957],[-96.902838999976908,28.837916000223572],[-96.902157999736417,28.838772000012764],[-96.90054599990853,28.840848000364499],[-96.900341999694035,28.841108999962184],[-96.900945999941612,28.841584999818906],[-96.901836000419465,28.842279999842798],[-96.90196299974275,28.842438999865973],[-96.902022000192304,28.842495999785474],[-96.902044999758516,28.842525000188029],[-96.902129000322418,28.842630000384204],[-96.902258000193854,28.842792000231668],[-96.902511999738763,28.843111000160373],[-96.902767999831809,28.843431000011467],[-96.903106999765498,28.843856000197643],[-96.903145000298665,28.843902999824675],[-96.90294000025925,28.844201999733595],[-96.902879999984791,28.844289000277332],[-96.903131999879861,28.844603999927877],[-96.903239999834909,28.844740000373985],[-96.903341999942143,28.84486799984456],[-96.90342899998079,28.844976999644615],[-96.903502999600619,28.844943000217363],[-96.903685999898727,28.84485899973328],[-96.903987000197617,28.844690000033911],[-96.904505000231467,28.844427999873506],[-96.905127999847323,28.844090000373654],[-96.90590299979911,28.843667999903591],[-96.905977000317279,28.84362299960706],[-96.907944999797323,28.842590000247],[-96.917717000120433,28.83746099976484],[-96.917702999876724,28.837449000073473],[-96.917619000211133,28.837372999635068],[-96.916692999748292,28.836535000232448],[-96.916597000387114,28.836448000287206],[-96.915731000198718,28.836907000372019],[-96.914996000429895,28.837298000100596],[-96.9138149996989,28.835827000329214],[-96.913725000185522,28.835714999823189],[-96.914948999675914,28.834957999748887],[-96.914860999812362,28.834877999855934],[-96.91401800008849,28.834115999760392],[-96.914546999993021,28.833662000207209],[-96.914881999728763,28.833373999866168],[-96.915112999707446,28.833176999971737],[-96.915552999923491,28.83280099980135],[-96.918137000244997,28.830496000318007],[-96.91973900002715,28.829064000008422],[-96.91978800043097,28.82902100019621],[-96.919970000005833,28.828859000158573],[-96.920171999672192,28.828677999740556],[-96.920349999947433,28.828838000339225],[-96.920399000351225,28.828881000227032],[-96.920421999917451,28.828903000290868],[-96.922171999837602,28.827400000012034],[-96.922935000093858,28.826735000128153],[-96.92408800033742,28.827776000017948],[-96.926489000360831,28.829944999992186],[-96.92331599986035,28.831503999928213],[-96.923422000165559,28.831599000316412],[-96.923639999725452,28.831796000049785],[-96.923859000008562,28.831991999973717],[-96.924078000291686,28.83218899975024],[-96.924264999889445,28.832356999860277],[-96.92429599985158,28.832384999721146],[-96.924515000134704,28.832582000327694],[-96.924732999694584,28.832778000345414],[-96.925042000389382,28.833056000203285],[-96.925211000443781,28.833208000247499],[-96.925345000338083,28.83332799962859],[-96.925565000446113,28.833526000232929],[-96.926781000438893,28.834620000175704],[-96.926917999807927,28.834558999868019],[-96.932430000407521,28.832141000118693],[-96.935478000336204,28.830803999944834],[-96.935623999926079,28.830739999841875],[-96.936148999632621,28.830509999712739],[-96.937403999983459,28.82995900024796],[-96.942861000331476,28.835012000035377],[-96.94370700042839,28.835794999859676],[-96.944108000286391,28.836164999916885],[-96.954638999769472,28.845912999693951],[-96.955803999708607,28.846991999616833],[-96.96142300043833,28.851534000331615],[-96.969954999580921,28.858433000192587],[-96.970845999883679,28.859152999995505],[-96.969836999580139,28.860023999778893],[-96.971076000037428,28.861134000238888],[-96.972727000223401,28.862613000319378],[-96.969779999678735,28.865152000160951],[-96.969943999710253,28.865300000109681],[-96.972630999963926,28.867722000347964],[-96.972842999676033,28.867540999890238],[-96.974214000377827,28.866357000260773],[-96.974662000091485,28.865969000108354],[-96.974902000290996,28.865768000197914],[-96.975303000148983,28.865430999941601],[-96.975380999966802,28.865365000094975],[-96.975448999738859,28.865425999644824],[-96.979234999809435,28.868823999892246],[-96.981158999806865,28.870550999861226],[-96.980841999614455,28.870821999720956],[-96.978464000055581,28.872851999771335],[-96.982523999762549,28.87652500018153],[-96.982450000142691,28.876587999849512],[-96.974739999909289,28.883229000235161],[-96.976523000339711,28.884798999809121],[-96.9920459998404,28.898652999868375],[-96.987521999627944,28.902589999645681],[-96.990827000372903,28.9055460001622],[-96.993760999600454,28.905627000234247],[-96.994054000401732,28.905635999801472],[-96.997957999574766,28.905744000052007],[-96.998248000003002,28.901338000313725],[-96.996999000398262,28.902409000178128],[-96.994564000039659,28.900258000374603],[-96.994375999718699,28.900091999804054],[-96.994452999711584,28.898900000198477],[-96.994665000322001,28.898712999951702],[-96.996185999913294,28.897384000049765],[-96.99615999997404,28.896855999702804],[-96.997630000410027,28.89558600032505],[-96.997150000011004,28.895146999951063],[-96.99762299983901,28.894697000324612],[-96.998028999719878,28.895058999887436],[-96.998464999737962,28.895456000379113],[-96.998683000196166,28.89564799983058],[-96.998856000448555,28.895807000016838],[-96.999099000122783,28.896028999632119],[-96.999631000400342,28.896506000069103],[-96.99991099988452,28.896751999615816],[-96.999985000402688,28.89681799997048],[-97.001947999859851,28.89857500018017],[-97.002793999956765,28.89933200025424],[-97.003307999792668,28.899791000309502],[-97.003568000083675,28.900029000238117],[-97.004028000391202,28.899628000069974],[-97.004143000018928,28.899530000203207],[-97.004924999643421,28.898872000161941],[-97.005092000048009,28.898727999967054],[-97.005235000163125,28.898605000248669],[-97.006296000345216,28.897697000049501],[-97.0069220003341,28.897183000363857],[-97.006836000120387,28.897096999647715],[-97.006506000407498,28.896802000078988],[-97.006226000025023,28.896551000279111],[-97.006913999938192,28.895987000379002],[-97.007606000049321,28.896609999616107],[-97.008541999659599,28.89580999963222],[-97.009094000028654,28.895343999617552],[-97.008353000412029,28.894681000106225],[-97.008685999599663,28.894398999784979],[-97.007832999830029,28.89363399972477],[-97.007171999681049,28.89304199967065],[-97.007964000249601,28.892366999970069],[-97.008636000269249,28.891794000167554],[-97.008970000180085,28.891511999869554],[-97.009941999775393,28.890674999963544],[-97.010124000248581,28.890517999890278],[-97.009627000131118,28.890072999760154],[-97.009690999705228,28.89001800008888],[-97.009802000033318,28.889921000254407],[-97.009914000186299,28.889824999996531],[-97.010024999616064,28.889728999649954],[-97.010068999997003,28.889689999999902],[-97.010135999944154,28.889632000332028],[-97.010248000097135,28.889535999806959],[-97.010359000425225,28.889439999979665],[-97.01047099967991,28.889343000391776],[-97.010582999832891,28.889245999926711],[-97.010696999635712,28.889147999697311],[-97.010809999613613,28.889048999700723],[-97.010924000314759,28.888951000071877],[-97.011038000117566,28.88885300035059],[-97.011151000095467,28.888754000072751],[-97.011264999898287,28.88865600016549],[-97.011378999701108,28.888558000165801],[-97.011491999679009,28.88845900039319],[-97.011606000380141,28.888361000207592],[-97.011720000182962,28.888262999929491],[-97.011833000160863,28.888165000345388],[-97.011946999963669,28.888066000198158],[-97.012060999766504,28.887967999641603],[-97.012173999744405,28.887869999779152],[-97.012288000445523,28.887771000137171],[-97.012425999639476,28.887652000347266],[-97.012516000051164,28.887574000259022],[-97.012572999952582,28.887625000111605],[-97.012593999868969,28.887643000007305],[-97.01273600015918,28.887773999984667],[-97.013235999751387,28.888213999755727],[-97.014213000267873,28.889088000378006],[-97.01494300001383,28.889753000334824],[-97.015291999993281,28.890090000353382],[-97.015553000109193,28.890359999917504],[-97.015825999920665,28.890661999675906],[-97.0160950004325,28.890950000221189],[-97.016446000061777,28.890638999647077],[-97.016831000026244,28.890282000290352],[-97.017327000318801,28.88983299969367],[-97.017863999720916,28.88936099998967],[-97.020786000151233,28.886734999890638],[-97.022198999787491,28.885474999649762],[-97.022992000180963,28.884773999836565],[-97.023075000021635,28.884715999782546],[-97.023213000113898,28.884582999658537],[-97.023315000221146,28.88449400036156],[-97.023008000074483,28.884225999932358],[-97.022459999903418,28.88375199967529],[-97.02241600042079,28.883711999627625],[-97.023921000118548,28.882366999872769],[-97.024695000245444,28.881633000051515],[-97.024325000349606,28.881312000040502],[-97.023911000072815,28.880954000330807],[-97.023793999896952,28.880849000293967],[-97.028802999632987,28.876395999768132],[-97.030305999680948,28.875060000324321],[-97.029667000171585,28.874770000142366],[-97.028735999685836,28.873453999887502],[-97.028636000126738,28.873369999623311],[-97.027927000297169,28.872914000263229],[-97.027938000167822,28.872904000389408],[-97.028026000031375,28.872827000070004],[-97.028189000237973,28.872682000110547],[-97.029246000222088,28.87174600031021],[-97.029305999598236,28.871798999749206],[-97.029577999584802,28.872037000117526],[-97.030507000420712,28.872188999836176],[-97.031700999773861,28.873232999824008],[-97.032134000317228,28.873231000170147],[-97.032392999884976,28.872998999938577],[-97.032151000035654,28.872635000118262],[-97.032173999601881,28.872616999981645],[-97.032198999716243,28.872602000127699],[-97.03205999979906,28.87249099972496],[-97.032044999730445,28.872497000302534],[-97.032028999836925,28.872498000136549],[-97.03201299994339,28.872494000013752],[-97.032000000422926,28.8724859997678],[-97.031800000406378,28.872312000165103],[-97.032108000377946,28.872038999794441],[-97.030788999554701,28.870884999700326],[-97.030709999911977,28.870955000157039],[-97.030536999659617,28.870803000206639],[-97.03042299985681,28.870704000031445],[-97.030812000019239,28.870361000133176],[-97.030916999601232,28.8704620003424],[-97.031447000228951,28.869994000151102],[-97.031474999818059,28.870020000391843],[-97.032009999570349,28.869545999822421],[-97.03199600022495,28.869533000036864],[-97.032293000325879,28.869272000186719],[-97.032322999564798,28.869297999821413],[-97.032347999679146,28.86931999999134],[-97.032356000075069,28.869326999829912],[-97.032462000380278,28.869419999775321],[-97.032655999650729,28.869249000141387],[-97.032679999940157,28.869227999821899],[-97.03270599987944,28.869204999766772],[-97.03272299959788,28.869189000341116],[-97.032859000040304,28.869302000067222],[-97.032879999956705,28.869291999845792],[-97.032895999850226,28.869290999980937],[-97.032911999743774,28.869295000226959],[-97.032925000162564,28.869302999931964],[-97.032939000406259,28.869314000016978],[-97.033070999752411,28.869197999920022],[-97.03305300020908,28.869180999840708],[-97.033045999638063,28.869168000009505],[-97.033043999988237,28.869152999657704],[-97.033048000186199,28.869139999823002],[-97.033057000407027,28.86912799985317],[-97.033310999951922,28.868906000160742],[-97.03459600043999,28.870030999614279],[-97.034509000401357,28.870107999645565],[-97.035074000290876,28.87060200020521],[-97.035086999811355,28.870589999617497],[-97.035286999827903,28.870763999743627],[-97.03568299966301,28.870410999929653],[-97.035718999648026,28.870377000165071],[-97.03587400035704,28.870221999801583],[-97.035973999916152,28.870112999717133],[-97.036070000175627,28.870000999944278],[-97.036101999962668,28.869961000108503],[-97.03625299957541,28.869777999896616],[-97.036338999789123,28.869677999670426],[-97.036428000375906,28.869579999858864],[-97.036522000087245,28.869486000193671],[-97.036619000171612,28.869394000171134],[-97.036646999760706,28.869368999637949],[-97.037021999679439,28.869709999942071],[-97.037858999555525,28.868960000129608],[-97.038041000028713,28.868804000143115],[-97.038297999946678,28.868582999630299],[-97.038085000409652,28.868388000083225],[-97.037475000314288,28.867831999672429],[-97.036604999927917,28.867040999621643],[-97.034182000163213,28.864837999720766],[-97.033745000320195,28.864440000290077],[-97.03240499958055,28.863223000129469],[-97.032074999867675,28.862923999835381],[-97.032016000316446,28.862868999950784],[-97.032777999849458,28.862187999683723],[-97.035496000065265,28.859740999820378],[-97.036969999800903,28.858459000178289],[-97.036732999974447,28.858248000197541],[-97.036081999871186,28.85768300004591],[-97.040277000195687,28.854119999814859],[-97.038625000184823,28.852653999621754],[-97.036866000043815,28.85108699995337],[-97.036641999737839,28.850886999637272],[-97.036578999988649,28.850830999637179],[-97.036354999682658,28.850631999659939],[-97.036479000429537,28.850560999635221],[-97.03642699965269,28.85051399986925],[-97.03493000035084,28.849172000218118],[-97.034474000241246,28.848762999931065],[-97.031736999758863,28.846307999756757],[-97.030430000427828,28.845137000364105],[-97.029601999874231,28.844393000162516],[-97.029457999934195,28.844509999712347],[-97.028688000005261,28.845217000238204],[-97.02764600008976,28.846175000048561],[-97.027547000355568,28.846119999959772],[-97.026025999865951,28.847336000372849],[-97.02458800011533,28.848564999995382],[-97.023482999552328,28.849501000018673],[-97.023106999808689,28.849830999617385],[-97.021980000402678,28.850820999999328],[-97.021660999662146,28.850536000080425],[-97.021500999828575,28.850391999758134],[-97.021018999779727,28.849959999955505],[-97.020647000234064,28.849625999763362],[-97.019659999671831,28.848743000256686],[-97.019556999739663,28.84882299971795],[-97.019290999600884,28.848592000151818],[-97.019056000322564,28.848388000282203],[-97.018590999992156,28.847984999691583],[-97.017951999584469,28.847447000097176],[-97.017589000259605,28.847142000392882],[-97.017307000227319,28.846903999679892],[-97.015616999683303,28.845481000172963],[-97.015374999833966,28.845278999901552],[-97.014695000316721,28.844704999981087],[-97.014497999774903,28.844538000237453],[-97.013239000124443,28.845145000354339],[-97.013080999940684,28.844776000068919],[-97.01305300035159,28.844707000183746],[-97.013009999795585,28.844599000203178],[-97.013000999574743,28.844574000002233],[-97.012995999551862,28.84455900003622],[-97.012992000252225,28.844549999898135],[-97.012988999879184,28.844539999656437],[-97.012984999681223,28.844530000200589],[-97.012982000206492,28.844519999956983],[-97.01297800000853,28.844509999712347],[-97.012973999810569,28.844500000253625],[-97.012971000335824,28.844490000007116],[-97.012967999962783,28.844479999759592],[-97.012963999764821,28.844470000298045],[-97.01296100029009,28.844460000048599],[-97.012957000092129,28.844449999798201],[-97.012953999719059,28.844440000333766],[-97.012951000244342,28.844430000081431],[-97.012947000046395,28.844419999828208],[-97.012943999673325,28.844410000360835],[-97.012941000198595,28.844400000105612],[-97.012937000000633,28.844389999849501],[-97.012933999627592,28.844380000379239],[-97.012931000152847,28.844370000121206],[-97.012927999779805,28.844359999862142],[-97.012925000305074,28.844349000284272],[-97.012921999932033,28.844339000023261],[-97.012917999734057,28.84432899976122],[-97.012915000259341,28.844319000285097],[-97.012911999886271,28.844309000021198],[-97.012341999973884,28.842417999639331],[-97.012245999714423,28.841961999854377],[-97.012227000346158,28.841875999853823],[-97.012073000360374,28.841363999678521],[-97.011987000146632,28.841078999815608],[-97.011906999780692,28.840814000374731],[-97.01182700031309,28.840549000258918],[-97.012330000278325,28.840149999782291],[-97.012669000212028,28.839884000188327],[-97.012637000424974,28.839853000327448],[-97.012632000402121,28.839823999967013],[-97.01262700037924,28.839790999791191],[-97.01261499978537,28.839764999859916],[-97.012466999647344,28.839424999857794],[-97.012288000445523,28.839029000260084],[-97.012006000413223,28.839274999758274],[-97.011982999948685,28.838120000168985],[-97.011989999621392,28.837936999785093],[-97.012008999887954,28.837659000375016],[-97.012008000063034,28.837483000375848],[-97.012138999584309,28.837484999930439],[-97.012244999889504,28.836938999712665],[-97.012360000415555,28.836817000206313],[-97.012475999868187,28.836694999770057],[-97.012439000058265,28.836620999926005],[-97.01225199956221,28.83624300002905],[-97.012019999758607,28.835377999751845],[-97.011735000251562,28.83481500009368],[-97.016398000381216,28.83456699988464],[-97.016930999585369,28.834537999624814],[-97.017471000258837,28.834510000343229],[-97.01756199959712,28.834503999934121],[-97.017631000092408,28.834431999719126],[-97.017714999757999,28.834342999974719],[-97.016930999585369,28.834384999748618],[-97.014323999697623,28.834523999984963],[-97.014343999789119,28.83451199995493],[-97.014481000056477,28.834431000306008],[-97.014110000335705,28.834030000357615],[-97.013908999595941,28.833811999741354],[-97.013551000293958,28.833425000345336],[-97.013500000240342,28.832706999939944],[-97.014624000171594,28.8326369997034],[-97.019792999741213,28.83231500005494],[-97.020032999940724,28.832298999674929],[-97.020464999760861,28.83227000035712],[-97.02080700006762,28.832246999996887],[-97.020865999618849,28.83224299989951],[-97.02091699967248,28.832240000023106],[-97.020935999939056,28.83223800036777],[-97.020894000106267,28.832162000058585],[-97.020873000189866,28.832139999896622],[-97.020833000006888,28.832099000226204],[-97.020771999907524,28.832043000343131],[-97.020726999701694,28.831982000098954],[-97.020724000226949,28.83197299966],[-97.020703000310547,28.831906000389814],[-97.020673999998237,28.831845000065361],[-97.020674999823143,28.831776999700232],[-97.020679000021104,28.831711999969365],[-97.020655999556567,28.831659999998067],[-97.020660999579448,28.831623999700007],[-97.020653999906742,28.831582999826317],[-97.020639999663047,28.83152200009954],[-97.020643999861008,28.831470000033306],[-97.020674999823143,28.831434999898452],[-97.02068300021908,28.831341999820083],[-97.020672000348412,28.83126599964363],[-97.020689000066852,28.831220000048297],[-97.020708000333428,28.831177999784156],[-97.020716999655932,28.831049999998822],[-97.020701999587317,28.83099099963902],[-97.020688000241933,28.830939000094435],[-97.02066399995249,28.830892000120507],[-97.020664999777395,28.830839999739538],[-97.020653999906742,28.830772000291731],[-97.020639999663047,28.830699999855927],[-97.020613999723764,28.830595999663092],[-97.020613999723764,28.830526000367716],[-97.020612999898873,28.830469999638396],[-97.020549000324763,28.830419000072215],[-97.020467000308997,28.830347000179128],[-97.020371999874442,28.83028899966072],[-97.020292000406826,28.83025200022221],[-97.02023700015522,28.830199000067719],[-97.020176000055855,28.830167999682736],[-97.020151999766426,28.830145999886231],[-97.020125000002224,28.830112999789296],[-97.02006999975066,28.830063000290238],[-97.020001999978589,28.830066999684462],[-97.019965000168668,28.830059000108932],[-97.019898000221517,28.830025999984418],[-97.019797999764094,28.829962000190097],[-97.019699999854794,28.829878999660462],[-97.019630000432912,28.829829000048953],[-97.019504999861127,28.829740999761579],[-97.018309999784762,28.828590000054078],[-97.017547000426816,28.82810900005083],[-97.016857999790446,28.827557999681829],[-97.016405000053908,28.82703000027546],[-97.01614200028817,28.82654799987133],[-97.015952000317355,28.82578000005401],[-97.015465000245655,28.825165999856907],[-97.015717000140725,28.824660999804646],[-97.015676000132842,28.824118000107529],[-97.015722000163592,28.823486999874646],[-97.015881000172257,28.823154000011289],[-97.016157000356785,28.822747999918718],[-97.016487999894565,28.822490000080212],[-97.016882000079875,28.822331999802486],[-97.017065000377983,28.821965999861977],[-97.01739099989291,28.822017999953452],[-97.018063999737464,28.82181200007453],[-97.018689999726334,28.821803000330323],[-97.019103000178234,28.821822999673341],[-97.019360000096171,28.821837999768409],[-97.019680999588218,28.821800000153054],[-97.020070999575552,28.821883000040575],[-97.020355999980907,28.822019000272785],[-97.020699999937491,28.822244999791252],[-97.021043000069184,28.822598999708671],[-97.021464999843559,28.82266600024678],[-97.022347999750409,28.823040999725801],[-97.022874000180181,28.823088999618271],[-97.02355000039779,28.823278999926469],[-97.024080999952119,28.823472000017201],[-97.024526000191045,28.823732999905122],[-97.025097999753271,28.824076000125974],[-97.025333999754821,28.824084000161257],[-97.025349999648355,28.824092999708295],[-97.025561000433868,28.824118000107529],[-97.025794999887282,28.824187000265187],[-97.026041999759471,28.824190999885165],[-97.026235999928247,28.824189000075201],[-97.026374000020496,28.824187999776708],[-97.026476000127744,28.824187000265187],[-97.026641999809101,28.824189000075201],[-97.026854000419505,28.824192000183618],[-97.027114999637121,28.824152000042627],[-97.027275000369002,28.824176999640652],[-97.027340999592923,28.824148999933115],[-97.02747500038555,28.824092000195932],[-97.027734999778218,28.824019999861946],[-97.027958000259304,28.824022999975234],[-97.028375000010826,28.82421499996256],[-97.028533000194571,28.824335000266764],[-97.028658999692951,28.824430999623488],[-97.028667999913793,28.824438000122392],[-97.028863999732351,28.82455000017076],[-97.028896000417731,28.824567999970494],[-97.028961999641666,28.824606000149696],[-97.029025000289167,28.824695000349458],[-97.029130999696065,28.824848000302797],[-97.029340999758332,28.824894999857541],[-97.0297259997228,28.824845999718498],[-97.029876000408947,28.824761000032858],[-97.029892000302468,28.82474000017389],[-97.030041000265385,28.824534000171244],[-97.03008899994596,28.824633000227205],[-97.030231000236185,28.824340999688079],[-97.030085999572918,28.824163999693027],[-97.029991000036674,28.823888999815281],[-97.02998000016602,28.823856999610634],[-97.029945999830844,28.823670999997059],[-97.029837999875795,28.823504999858201],[-97.029618999592671,28.823326999709273],[-97.029387999614002,28.82306199992739],[-97.029154999985508,28.822926999794063],[-97.028923000181905,28.822771000016694],[-97.028646999997392,28.822606000330751],[-97.028564999981626,28.822466000392154],[-97.027539999784551,28.822056000276277],[-97.026687999839851,28.821999000180355],[-97.026056999828086,28.82173700034593],[-97.025564999733504,28.821266000280609],[-97.025070000164177,28.82025499969841],[-97.024830999789572,28.819759000147439],[-97.024689000397672,28.819230000196772],[-97.024608000206825,28.818767000254581],[-97.02471500033694,28.818177999880866],[-97.024879000368472,28.817424999661331],[-97.025110000347155,28.816629000086376],[-97.025065000141296,28.816166000386762],[-97.025110000347155,28.815556999714861],[-97.02466799958296,28.814233999880944],[-97.024441999627157,28.813671000004199],[-97.024455000045947,28.813348000327121],[-97.02463900016896,28.812957999991429],[-97.024988000148412,28.812431999789013],[-97.02536499971697,28.812067000103198],[-97.026110000429853,28.811793000182302],[-97.027971999604688,28.81089299987482],[-97.029165000031242,28.810667000122468],[-97.030192999703047,28.810555999740657],[-97.031166999846477,28.810599999735931],[-97.031858000132686,28.810654999703988],[-97.032063999997021,28.810673000331199],[-97.032408999778525,28.810651999992658],[-97.032996000307662,28.810509999654077],[-97.0335410001057,28.810277999626798],[-97.033874000191631,28.809962999994383],[-97.034080999880871,28.809628000089823],[-97.034147000003102,28.809383000241255],[-97.034163999721542,28.809084999934797],[-97.034070000010203,28.808778000267566],[-97.033669000152216,28.808444000150804],[-97.03329199968536,28.808189999745881],[-97.032741000039536,28.807936999963459],[-97.03225099959478,28.807754999718284],[-97.031678000207634,28.807677999972945],[-97.031155000150903,28.807704999716343],[-97.030661000406496,28.807846000274161],[-97.030382999673833,28.808165999911161],[-97.030018999625767,28.808730999736113],[-97.029652000102971,28.809041000086729],[-97.029523000231521,28.80910200038991],[-97.029354000177122,28.809121000154384],[-97.028405000148041,28.809258999831645],[-97.027641999891813,28.809276999912946],[-97.026893999704171,28.809162000214492],[-97.025989000056043,28.809203000258456],[-97.025255999937016,28.809352999609757],[-97.0247479999489,28.809569999837148],[-97.024094000370923,28.809898999675248],[-97.023619999819687,28.809996999828151],[-97.023153999664359,28.810065999896512],[-97.022593999797706,28.810059999652822],[-97.022336999879741,28.809947999763253],[-97.021883000318326,28.809673000127891],[-97.021675999730761,28.809372999769323],[-97.021577999821474,28.80896900036683],[-97.021662000385376,28.808547999642109],[-97.021758999571446,28.807901999789653],[-97.021895000013885,28.807330000117684],[-97.021926999800939,28.806952999815593],[-97.021903000409793,28.806698999711426],[-97.021622000202399,28.806238999793777],[-97.021150000199299,28.805848999607544],[-97.020733000447791,28.80558700007952],[-97.020298000254598,28.805569999838038],[-97.019882000327996,28.805709999660593],[-97.019815000380845,28.805814000306608],[-97.019601999945507,28.806013999864486],[-97.019037000055974,28.806653999963121],[-97.018539999938525,28.806825000162796],[-97.018062000087639,28.806889999686351],[-97.017605999978059,28.806847000163497],[-97.017176999632667,28.806572000214327],[-97.016903999821196,28.806153999877598],[-97.016665000344901,28.805666999650768],[-97.016513000008928,28.805411999868593],[-97.016302999946646,28.804793999659861],[-97.016415000099641,28.80434100026633],[-97.016650000276286,28.803961999971317],[-97.016980999814081,28.803503000275384],[-97.017487999977277,28.803146999789565],[-97.017928000193336,28.802872000308639],[-97.018210000225636,28.802761999998189],[-97.018712000365966,28.802650999853441],[-97.01923100022475,28.802574000272195],[-97.020176000055855,28.802536999645604],[-97.02049200042336,28.802476000221997],[-97.020636000363396,28.802273999940102],[-97.020677000371265,28.802018999726581],[-97.020670999625182,28.801513000279996],[-97.020565000218284,28.800967000352198],[-97.020325999843692,28.800511999801678],[-97.019887000350863,28.800114999663865],[-97.019408999601666,28.799853999633775],[-97.018842000062307,28.799651000033112],[-97.01844399967905,28.799495999781005],[-97.018258999731131,28.799423000014105],[-97.017794000299034,28.799249000223334],[-97.017564999970176,28.799081999983574],[-97.017443999596352,28.79882500032215],[-97.0174479997943,28.798499000216591],[-97.017519999764332,28.798034999689165],[-97.01768999964365,28.797507999954181],[-97.017904999728799,28.797200000258592],[-97.018196999806847,28.796817000088417],[-97.018195999981941,28.79675899978988],[-97.018168000392834,28.795609999642934],[-97.01799099994254,28.795450999743156],[-97.017857999873129,28.795338999895939],[-97.017832999758781,28.795189000052655],[-97.018176999715365,28.794430000212806],[-97.018231000142023,28.794445000316067],[-97.018361999663298,28.794478999702367],[-97.018395999998489,28.79447300013565],[-97.018528000242952,28.79426200032584],[-97.018555999832031,28.794244999811401],[-97.018893999940857,28.794050000288248],[-97.019062999995256,28.793952000095462],[-97.019294999798845,28.793861000002675],[-97.019713000273597,28.793696999989557],[-97.019771999824826,28.793583000222025],[-97.020687000417041,28.793402999713759],[-97.021674999905855,28.793356000120305],[-97.022269999932604,28.793516999678143],[-97.023060999777925,28.794217999729668],[-97.023117999679343,28.794240000030037],[-97.023145000341827,28.794239000231208],[-97.023165000433337,28.794259999941289],[-97.023270999840221,28.794392000046514],[-97.023286999733742,28.794410000334171],[-97.023423000176194,28.794562000102694],[-97.023507999666691,28.794750000110664],[-97.023654999979783,28.795361999747868],[-97.023665000025517,28.795438999933967],[-97.023669000223478,28.795468999847955],[-97.023670000048398,28.79549899975332],[-97.023757999911936,28.795423000186261],[-97.026040000109646,28.793482000171934],[-97.02741099991313,28.794723999953924],[-97.028397999577038,28.795618000289981],[-97.029678000042225,28.794511000272397],[-97.031284000022353,28.793121000260768],[-97.031391999977373,28.79302500039022],[-97.031682000405596,28.793288999624775],[-97.034285999920272,28.79566300008047],[-97.035773999899618,28.797031000340528],[-97.036009000076263,28.797244000383291],[-97.036405999736303,28.797603999632322],[-97.036271000017081,28.797720000043899],[-97.036204999894821,28.797993000211282],[-97.03601699957386,28.798518000340046],[-97.035922000037615,28.799075000142079],[-97.035861999763171,28.799626000058801],[-97.035694000431988,28.800119000208213],[-97.035789999793138,28.80020400032398],[-97.038409000274754,28.802532999981267],[-97.038456999955329,28.802574999991137],[-97.038116000371787,28.802873000024707],[-97.037482999811871,28.803416999990841],[-97.037050000166843,28.803795999906516],[-97.036382000345156,28.804365999896685],[-97.036332000116445,28.804408999656214],[-97.035956000372806,28.804738999746448],[-97.036231999659009,28.805078999676571],[-97.036192000374356,28.805604000318294],[-97.03650199999575,28.806801000013571],[-97.03749899970542,28.808546000318898],[-97.037318999780354,28.808767999737555],[-97.037201999604491,28.808862999617276],[-97.037296000214127,28.808944999924421],[-97.03743500013131,28.809055999661304],[-97.037700000445184,28.809290000144671],[-97.037805999852068,28.809386999642591],[-97.038096000280305,28.809653999676875],[-97.038496000313373,28.81001400013443],[-97.038896000346469,28.810359999607265],[-97.039509999741469,28.810908999608852],[-97.039981999744569,28.811345999904756],[-97.04030399995986,28.811633000153691],[-97.040636000220871,28.811356000187303],[-97.0406949997721,28.81129800010957],[-97.041160000102522,28.810892000235736],[-97.041832000122156,28.81148799989089],[-97.040982999652201,28.812231999957863],[-97.041039999553604,28.812282000148421],[-97.0410749997137,28.812313999974418],[-97.041293999996824,28.812519999750521],[-97.041683999984159,28.812949999888502],[-97.041798999611885,28.813059999675279],[-97.042479999852375,28.813662000343566],[-97.042519000210433,28.813695999757144],[-97.042691999564468,28.813551000004743],[-97.048536000425088,28.808423999812884],[-97.048491000219258,28.808383000249503],[-97.048682999839869,28.808215000027051],[-97.048877000008645,28.808047000320844],[-97.051473000025695,28.805790999612544]],[[-97.01326099986575,28.834581000305597],[-97.012435999685209,28.83462500037993],[-97.011788999779938,28.834659000031145],[-97.012186000338275,28.834448999971116],[-97.012406000446319,28.834451000370869],[-97.012764999573179,28.834454000183559],[-97.01326099986575,28.834581000305597]],[[-96.978448000162061,28.862767000302252],[-96.978278000282742,28.862913999787011],[-96.977111999620377,28.863919000232471],[-96.976962999657445,28.864044999868224],[-96.971185999642302,28.85885899962275],[-96.972665000299116,28.857581000029718],[-96.974227999723212,28.858986999812295],[-96.978448000162061,28.862767000302252]]],[[[-96.979566000245541,28.761825999626016],[-96.978520999956984,28.759737000266171],[-96.977022000106999,28.760319000032727],[-96.978065999672324,28.762408000345594],[-96.979566000245541,28.761825999626016]]]]},"properties":{"NAME":"Victoria city","GEOID":"4875428","BASENAME":"Victoria","LSADC":"25"}}]}